start=new Date('2023-02-01T00:00:00.000Z').valueOf();
sats=[{"FILE":"3766747","EPOCH":"2023-01-31T19:17:33.634464","MEAN_ELEMENT_THEORY":"SGP4","GP_ID":"224127231","TLE_LINE1":"1 52554U 22051X   23031.80386151 -.00000165  00000-0  77173-5 0  9995","PERIAPSIS":"538.858","REV_AT_EPOCH":"4034","TLE_LINE2":"2 52554  53.2156 179.8511 0001347  85.2197 274.8949 15.08825617 40341","CLASSIFICATION_TYPE":"U","RCS_SIZE":"LARGE","ELEMENT_SET_NO":"999","MEAN_MOTION_DOT":"-0.00000165","EPHEMERIS_TYPE":"0","PERIOD":"95.438","OBJECT_NAME":"STARLINK-3770","BSTAR":"0.00000771730000","MEAN_MOTION_DDOT":"0.0000000000000","MEAN_MOTION":"15.08825617","ECCENTRICITY":"0.00013470","INCLINATION":"53.2156","COUNTRY_CODE":"US","ARG_OF_PERICENTER":"85.2197","RA_OF_ASC_NODE":"179.8511","CENTER_NAME":"EARTH","LAUNCH_DATE":"2022-05-13","OBJECT_ID":"2022-051X","OBJECT_TYPE":"PAYLOAD","TIME_SYSTEM":"UTC","MEAN_ANOMALY":"274.8949","NORAD_CAT_ID":"52554","REF_FRAME":"TEME","SEMIMAJOR_AXIS":"6917.924","APOAPSIS":"540.721","DECAY_DATE":null,"SITE":"AFWTR"},{"FILE":"3766475","EPOCH":"2023-01-31T11:50:25.525536","MEAN_ELEMENT_THEORY":"SGP4","GP_ID":"224096626","TLE_LINE1":"1 52555U 22051Y   23031.49335099  .00001752  00000-0  12814-3 0  9997","PERIAPSIS":"539.077","REV_AT_EPOCH":"4037","TLE_LINE2":"2 52555  53.2156 176.2461 0000980  98.1502 261.9602 15.08836778 40378","CLASSIFICATION_TYPE":"U","RCS_SIZE":"LARGE","ELEMENT_SET_NO":"999","MEAN_MOTION_DOT":"0.00001752","EPHEMERIS_TYPE":"0","PERIOD":"95.438","OBJECT_NAME":"STARLINK-3949","BSTAR":"0.00012814000000","MEAN_MOTION_DDOT":"0.0000000000000","MEAN_MOTION":"15.08836778","ECCENTRICITY":"0.00009800","INCLINATION":"53.2156","COUNTRY_CODE":"US","ARG_OF_PERICENTER":"98.1502","RA_OF_ASC_NODE":"176.2461","CENTER_NAME":"EARTH","LAUNCH_DATE":"2022-05-13","OBJECT_ID":"2022-051Y","OBJECT_TYPE":"PAYLOAD","TIME_SYSTEM":"UTC","MEAN_ANOMALY":"261.9602","REF_FRAME":"TEME","NORAD_CAT_ID":"52555","SEMIMAJOR_AXIS":"6917.890","APOAPSIS":"540.433","DECAY_DATE":null,"SITE":"AFWTR"},{"OBJECT_NAME":"STARLINK-3763","BSTAR":"0.00063328000000","MEAN_MOTION_DOT":"0.00010631","EPHEMERIS_TYPE":"0","PERIOD":"95.256","MEAN_MOTION_DDOT":"0.0000000000000","MEAN_MOTION":"15.11714901","MEAN_ELEMENT_THEORY":"SGP4","GP_ID":"224097370","FILE":"3766475","EPOCH":"2023-01-31T10:28:13.797984","CLASSIFICATION_TYPE":"U","RCS_SIZE":"LARGE","ELEMENT_SET_NO":"999","TLE_LINE1":"1 52556U 22051Z   23031.43627081  .00010631  00000-0  63328-3 0  9999","PERIAPSIS":"529.678","REV_AT_EPOCH":"4030","TLE_LINE2":"2 52556  53.2159 180.4819 0001873 111.7207 248.3986 15.11714901 40306","REF_FRAME":"TEME","NORAD_CAT_ID":"52556","SEMIMAJOR_AXIS":"6909.107","TIME_SYSTEM":"UTC","MEAN_ANOMALY":"248.3986","DECAY_DATE":null,"SITE":"AFWTR","APOAPSIS":"532.266","COUNTRY_CODE":"US","ARG_OF_PERICENTER":"111.7207","RA_OF_ASC_NODE":"180.4819","ECCENTRICITY":"0.00018730","INCLINATION":"53.2159","OBJECT_TYPE":"PAYLOAD","CENTER_NAME":"EARTH","LAUNCH_DATE":"2022-05-13","OBJECT_ID":"2022-051Z"},{"REF_FRAME":"TEME","NORAD_CAT_ID":"52557","SEMIMAJOR_AXIS":"6917.882","TIME_SYSTEM":"UTC","MEAN_ANOMALY":"264.4306","DECAY_DATE":null,"SITE":"AFWTR","APOAPSIS":"540.705","ARG_OF_PERICENTER":"95.6844","COUNTRY_CODE":"US","RA_OF_ASC_NODE":"176.5883","INCLINATION":"53.2138","ECCENTRICITY":"0.00013850","OBJECT_TYPE":"PAYLOAD","CENTER_NAME":"EARTH","OBJECT_ID":"2022-051AA","LAUNCH_DATE":"2022-05-13","BSTAR":"-0.00011767000000","OBJECT_NAME":"STARLINK-3943","MEAN_MOTION_DOT":"-0.00002160","PERIOD":"95.438","EPHEMERIS_TYPE":"0","MEAN_MOTION":"15.08839574","MEAN_MOTION_DDOT":"0.0000000000000","MEAN_ELEMENT_THEORY":"SGP4","GP_ID":"224095627","FILE":"3766475","EPOCH":"2023-01-31T09:59:07.528704","CLASSIFICATION_TYPE":"U","ELEMENT_SET_NO":"999","RCS_SIZE":"LARGE","PERIAPSIS":"538.789","TLE_LINE1":"1 52557U 22051AA  23031.41605936 -.00002160  00000-0 -11767-3 0  9993","TLE_LINE2":"2 52557  53.2138 176.5883 0001385  95.6844 264.4306 15.08839574 40367","REV_AT_EPOCH":"4036"},{"MEAN_ANOMALY":"268.6942","TIME_SYSTEM":"UTC","SEMIMAJOR_AXIS":"6917.874","REF_FRAME":"TEME","NORAD_CAT_ID":"52558","APOAPSIS":"540.485","SITE":"AFWTR","DECAY_DATE":null,"ECCENTRICITY":"0.00010780","INCLINATION":"53.2168","RA_OF_ASC_NODE":"165.0916","COUNTRY_CODE":"US","ARG_OF_PERICENTER":"91.4174","LAUNCH_DATE":"2022-05-13","OBJECT_ID":"2022-051AB","CENTER_NAME":"EARTH","OBJECT_TYPE":"PAYLOAD","EPHEMERIS_TYPE":"0","PERIOD":"95.437","MEAN_MOTION_DOT":"0.00001008","OBJECT_NAME":"STARLINK-3954","BSTAR":"0.00008141500000","MEAN_MOTION_DDOT":"0.0000000000000","MEAN_MOTION":"15.08841951","EPOCH":"2023-01-31T17:57:22.649184","FILE":"3766747","GP_ID":"224126732","MEAN_ELEMENT_THEORY":"SGP4","REV_AT_EPOCH":"4054","TLE_LINE2":"2 52558  53.2168 165.0916 0001078  91.4174 268.6942 15.08841951 40544","TLE_LINE1":"1 52558U 22051AB  23031.74817881  .00001008  00000-0  81415-4 0  9990","PERIAPSIS":"538.994","RCS_SIZE":"LARGE","ELEMENT_SET_NO":"999","CLASSIFICATION_TYPE":"U"},{"MEAN_MOTION_DDOT":"0.0000000000000","MEAN_MOTION":"15.08841757","EPHEMERIS_TYPE":"0","PERIOD":"95.437","MEAN_MOTION_DOT":"0.00001541","OBJECT_NAME":"STARLINK-3953","BSTAR":"0.00011490000000","REV_AT_EPOCH":"4054","TLE_LINE2":"2 52559  53.2183 165.1243 0001422  98.3856 261.7298 15.08841757 40544","TLE_LINE1":"1 52559U 22051AC  23031.74177675  .00001541  00000-0  11490-3 0  9998","PERIAPSIS":"538.756","RCS_SIZE":"LARGE","ELEMENT_SET_NO":"999","CLASSIFICATION_TYPE":"U","EPOCH":"2023-01-31T17:48:09.511200","FILE":"3766747","GP_ID":"224127983","MEAN_ELEMENT_THEORY":"SGP4","APOAPSIS":"540.724","SITE":"AFWTR","DECAY_DATE":null,"MEAN_ANOMALY":"261.7298","TIME_SYSTEM":"UTC","SEMIMAJOR_AXIS":"6917.875","NORAD_CAT_ID":"52559","REF_FRAME":"TEME","LAUNCH_DATE":"2022-05-13","OBJECT_ID":"2022-051AC","CENTER_NAME":"EARTH","OBJECT_TYPE":"PAYLOAD","ECCENTRICITY":"0.00014220","INCLINATION":"53.2183","RA_OF_ASC_NODE":"165.1243","COUNTRY_CODE":"US","ARG_OF_PERICENTER":"98.3856"},{"MEAN_ANOMALY":"292.7022","TIME_SYSTEM":"UTC","SEMIMAJOR_AXIS":"6917.850","NORAD_CAT_ID":"52560","REF_FRAME":"TEME","APOAPSIS":"540.442","SITE":"AFWTR","DECAY_DATE":null,"INCLINATION":"53.2154","ECCENTRICITY":"0.00010510","RA_OF_ASC_NODE":"165.1118","ARG_OF_PERICENTER":"67.4081","COUNTRY_CODE":"US","OBJECT_ID":"2022-051AD","LAUNCH_DATE":"2022-05-13","CENTER_NAME":"EARTH","OBJECT_TYPE":"PAYLOAD","PERIOD":"95.437","EPHEMERIS_TYPE":"0","MEAN_MOTION_DOT":"-0.00000725","BSTAR":"-0.00002744500000","OBJECT_NAME":"STARLINK-3956","MEAN_MOTION":"15.08850052","MEAN_MOTION_DDOT":"0.0000000000000","EPOCH":"2023-01-31T17:52:05.035008","FILE":"3766747","GP_ID":"224127734","MEAN_ELEMENT_THEORY":"SGP4","TLE_LINE2":"2 52560  53.2154 165.1118 0001051  67.4081 292.7022 15.08850052 40547","REV_AT_EPOCH":"4054","PERIAPSIS":"538.988","TLE_LINE1":"1 52560U 22051AD  23031.74450272 -.00000725  00000-0 -27445-4 0  9990","ELEMENT_SET_NO":"999","RCS_SIZE":"LARGE","CLASSIFICATION_TYPE":"U"},{"ECCENTRICITY":"0.00014130","INCLINATION":"53.2155","COUNTRY_CODE":"US","ARG_OF_PERICENTER":"87.2663","RA_OF_ASC_NODE":"181.3799","CENTER_NAME":"EARTH","LAUNCH_DATE":"2022-05-13","OBJECT_ID":"2022-051AE","OBJECT_TYPE":"PAYLOAD","TIME_SYSTEM":"UTC","MEAN_ANOMALY":"272.8491","NORAD_CAT_ID":"52561","REF_FRAME":"TEME","SEMIMAJOR_AXIS":"6917.922","APOAPSIS":"540.764","DECAY_DATE":null,"SITE":"AFWTR","FILE":"3766475","EPOCH":"2023-01-31T11:04:42.607200","MEAN_ELEMENT_THEORY":"SGP4","GP_ID":"224096127","TLE_LINE1":"1 52561U 22051AE  23031.46160425  .00003427  00000-0  23339-3 0  9995","PERIAPSIS":"538.809","REV_AT_EPOCH":"4029","TLE_LINE2":"2 52561  53.2155 181.3799 0001413  87.2663 272.8491 15.08826479 40299","CLASSIFICATION_TYPE":"U","RCS_SIZE":"LARGE","ELEMENT_SET_NO":"999","MEAN_MOTION_DOT":"0.00003427","EPHEMERIS_TYPE":"0","PERIOD":"95.438","OBJECT_NAME":"STARLINK-3955","BSTAR":"0.00023339000000","MEAN_MOTION_DDOT":"0.0000000000000","MEAN_MOTION":"15.08826479"},{"OBJECT_NAME":"STARLINK-3957","BSTAR":"-0.00003272500000","MEAN_MOTION_DOT":"-0.00000809","EPHEMERIS_TYPE":"0","PERIOD":"95.438","MEAN_MOTION_DDOT":"0.0000000000000","MEAN_MOTION":"15.08837921","MEAN_ELEMENT_THEORY":"SGP4","GP_ID":"224127232","FILE":"3766747","EPOCH":"2023-01-31T19:16:52.294656","CLASSIFICATION_TYPE":"U","RCS_SIZE":"LARGE","ELEMENT_SET_NO":"999","TLE_LINE1":"1 52562U 22051AF  23031.80338304 -.00000809  00000-0 -32725-4 0  9990","PERIAPSIS":"538.946","REV_AT_EPOCH":"4055","TLE_LINE2":"2 52562  53.2164 164.8491 0001165  97.3606 262.7518 15.08837921 40559","NORAD_CAT_ID":"52562","REF_FRAME":"TEME","SEMIMAJOR_AXIS":"6917.887","TIME_SYSTEM":"UTC","MEAN_ANOMALY":"262.7518","DECAY_DATE":null,"SITE":"AFWTR","APOAPSIS":"540.558","COUNTRY_CODE":"US","ARG_OF_PERICENTER":"97.3606","RA_OF_ASC_NODE":"164.8491","ECCENTRICITY":"0.00011650","INCLINATION":"53.2164","OBJECT_TYPE":"PAYLOAD","CENTER_NAME":"EARTH","LAUNCH_DATE":"2022-05-13","OBJECT_ID":"2022-051AF"},{"RCS_SIZE":"MEDIUM","ELEMENT_SET_NO":"999","CLASSIFICATION_TYPE":"U","REV_AT_EPOCH":"4030","TLE_LINE2":"2 52563  53.2158 181.0652 0001108  89.4687 270.6432 15.08836819 40302","TLE_LINE1":"1 52563U 22051AG  23031.53152257  .00000804  00000-0  68599-4 0  9993","PERIAPSIS":"538.989","GP_ID":"224096627","MEAN_ELEMENT_THEORY":"SGP4","EPOCH":"2023-01-31T12:45:23.550048","FILE":"3766475","MEAN_MOTION_DDOT":"0.0000000000000","MEAN_MOTION":"15.08836819","OBJECT_NAME":"STARLINK-3942","BSTAR":"0.00006859900000","EPHEMERIS_TYPE":"0","PERIOD":"95.438","MEAN_MOTION_DOT":"0.00000804","OBJECT_TYPE":"PAYLOAD","LAUNCH_DATE":"2022-05-13","OBJECT_ID":"2022-051AG","CENTER_NAME":"EARTH","RA_OF_ASC_NODE":"181.0652","COUNTRY_CODE":"US","ARG_OF_PERICENTER":"89.4687","ECCENTRICITY":"0.00011080","INCLINATION":"53.2158","SITE":"AFWTR","DECAY_DATE":null,"APOAPSIS":"540.522","SEMIMAJOR_AXIS":"6917.890","REF_FRAME":"TEME","NORAD_CAT_ID":"52563","MEAN_ANOMALY":"270.6432","TIME_SYSTEM":"UTC"}];
